[{"OBJECT_NAME":"HULIANWANG DIGUI-138","OBJECT_ID":"2026-007B","EPOCH":"2026-03-03T07:24:38.053728","MEAN_MOTION":13.43759546,"ECCENTRICITY":5.936e-5,"INCLINATION":50.0071,"RA_OF_ASC_NODE":106.2207,"ARG_OF_PERICENTER":208.7562,"MEAN_ANOMALY":151.3284,"EPHEMERIS_TYPE":0,"CLASSIFICATION_TYPE":"U","NORAD_CAT_ID":67436,"ELEMENT_SET_NO":999,"REV_AT_EPOCH":669,"BSTAR":0.00017181448,"MEAN_MOTION_DOT":-3.0e-7,"MEAN_MOTION_DDOT":0},{"OBJECT_NAME":"THORAD AGENA D DEB","OBJECT_ID":"1970-025RS","EPOCH":"2026-03-08T10:17:31.297344","MEAN_MOTION":13.43818409,"ECCENTRICITY":0.0006792,"INCLINATION":99.8268,"RA_OF_ASC_NODE":327.6592,"ARG_OF_PERICENTER":258.2349,"MEAN_ANOMALY":101.802,"EPHEMERIS_TYPE":0,"CLASSIFICATION_TYPE":"U","NORAD_CAT_ID":42512,"ELEMENT_SET_NO":999,"REV_AT_EPOCH":60280,"BSTAR":0.00015004268,"MEAN_MOTION_DOT":4.3e-7,"MEAN_MOTION_DDOT":0}]
